0 THOR ABLESTAR DEB
1 03842U 61015JF  13282.25440954  .00000176  00000-0  26789-3 0  7121
2 03842 066.7395 186.0107 0138236 299.1971 139.7676 13.69348062600714
0 THOR ABLESTAR DEB
1 03842U 61015JF  13288.09578970  .00000221  00000-0  31667-3 0  7143
2 03842 066.7387 172.2192 0138219 295.5333 135.5484 13.69349756601510
0 THOR ABLESTAR DEB
1 03842U 61015JF  13290.58092932  .00000170  00000-0  26204-3 0  7154
2 03842 066.7384 166.3519 0138269 293.9655 146.3648 13.69351228601854
0 THOR ABLESTAR DEB
1 03842U 61015JF  13293.06254752  .00000159  00000-0  25014-3 0  7166
2 03842 066.7382 160.4923 0138261 292.4035 139.8313 13.69352182602198
0 THOR ABLESTAR DEB
1 03842U 61015JF  13295.10892486  .00000192  00000-0  28496-3 0  7170
2 03842 066.7381 155.6603 0138290 291.1085 147.7366 13.69353322602475
